IRIDIUM 154             
1 43574U 18061F   26155.74303762  .00000097  00000+0  27618-4 0  9993
2 43574  86.3969  62.0093 0002045  86.2341 273.9088 14.34217482411628
IRIDIUM 163             
1 43575U 18061G   26155.16586057  .00000098  00000+0  27859-4 0  9998
2 43575  86.3968  62.1661 0002355  84.7398 275.4066 14.34218549411515
IRIDIUM 156             
1 43576U 18061H   26155.69864081  .00000075  00000+0  19572-4 0  9991
2 43576  86.3964  61.9511 0002175  78.8278 281.3162 14.34217252411584
IRIDIUM 164             
1 43577U 18061J   26155.74937831  .00000233  00000+0  76150-4 0  9993
2 43577  86.3967  61.9699 0002080  89.7067 270.4368 14.34216843411635
IRIDIUM 159             
1 43578U 18061K   26155.22928827  .00000000  00000+0 -70674-5 0  9991
2 43578  86.3964  62.1242 0002197  85.5340 274.6106 14.34217325411527
IRIDIUM 180             
1 43922U 19002A   26155.64739564  .00000016  00000+0 -14519-5 0  9997
2 43922  86.3974 358.8409 0002235  89.2813 270.8639 14.34217604387194
IRIDIUM 176             
1 43923U 19002B   26155.10918546  .00000926  00000+0  14304-3 0  9997
2 43923  86.6094 359.0116 0002067  84.8735 275.2718 14.72250537397323
IRIDIUM 168             
1 43924U 19002C   26155.64105294 -.00000021  00000+0 -14614-4 0  9998
2 43924  86.3973 358.9206 0002057  89.6669 270.4763 14.34217211387172
IRIDIUM 173             
1 43925U 19002D   26155.07021762  .00000262  00000+0  86519-4 0  9991
2 43925  86.3973 359.0486 0002255  87.4462 272.6992 14.34219202387071
IRIDIUM 169             
1 43926U 19002E   26155.73220394  .00000431  00000+0  13447-3 0  9994
2 43926  86.4235  30.4005 0002299  70.7251 289.4196 14.38608937388434
IRIDIUM 172             
1 43927U 19002F   26155.06387709  .00000024  00000+0  15379-5 0  9991
2 43927  86.3974 359.0592 0002271  89.7635 270.3821 14.34217486387086
IRIDIUM 175             
1 43928U 19002G   26154.34351604  .00000367  00000+0  10234-3 0  9990
2 43928  86.4502 296.3094 0000989 262.2416  97.8672 14.43604578396981
IRIDIUM 171             
1 43929U 19002H   26155.11461721  .00000014  00000+0 -20017-5 0  9991
2 43929  86.3983 359.3425 0002026  85.3395 274.8032 14.34217557387081
IRIDIUM 170             
1 43930U 19002J   26155.11537060  .00000251  00000+0  35948-4 0  9993
2 43930  86.6099 359.0117 0002366  87.6012 272.5476 14.72248600397338
IRIDIUM 167             
1 43931U 19002K   26155.10827407  .00000025  00000+0  17424-5 0  9999
2 43931  86.3975 359.0626 0001903  83.6021 276.5391 14.34217664387081
IRIDIUM 181             
1 56726U 23068S   26155.69649591  .00000379  00000+0  10660-3 0  9997
2 56726  86.4503  62.0112 0002262  88.7980 271.3480 14.43307636160636
IRIDIUM 177             
1 56727U 23068T   26155.00501736  .00000454  00000+0  56244-4 0  9994
2 56727  86.1957 335.0540 0002446  86.4663 273.6838 14.80229750164415
IRIDIUM 174             
1 56728U 23068U   26155.10300935 -.00000014  00000+0 -62114-5 0  9992
2 56728  86.6101 359.1625 0002485  89.3509 270.7993 14.72251410164090
IRIDIUM 178             
1 56729U 23068V   26155.67016057  .00001221  00000+0  15725-3 0  9997
2 56729  86.6547  30.5913 0002499  88.8287 271.3221 14.80245286164518
IRIDIUM 179             
1 56730U 23068W   26155.66480721  .00001187  00000+0  15277-3 0  9994
2 56730  86.6785  39.5356 0002336  85.6761 274.4728 14.80241824164516
